[
    {
        "title": "ABD Virgin Adaları",
        "dial_code": "+1 340",
        "value": "VI"
    },
    {
        "title": "Aland Adaları",
        "dial_code": "+358",
        "value": "AX"
    },
    {
        "title": "Almanya",
        "dial_code": "+49",
        "value": "DE"
    },
    {
        "title": "Amerika Birleşik Devletleri",
        "dial_code": "+1",
        "value": "US"
    },
    {
        "title": "Andora",
        "dial_code": "+376",
        "value": "AD"
    },
    {
        "title": "Angola",
        "dial_code": "+244",
        "value": "AO"
    },
    {
        "title": "Anguilla",
        "dial_code": "+1 264",
        "value": "AI"
    },
    {
        "title": "Antarktika",
        "dial_code": "+672",
        "value": "AQ"
    },
    {
        "title": "Antigua ve Barbuda",
        "dial_code": "+1268",
        "value": "AG"
    },
    {
        "title": "Arjantin",
        "dial_code": "+54",
        "value": "AR"
    },
    {
        "title": "Arnavutluk",
        "dial_code": "+355",
        "value": "AL"
    },
    {
        "title": "Aruba",
        "dial_code": "+297",
        "value": "AW"
    },
    {
        "title": "Avustralya",
        "dial_code": "+61",
        "value": "AU"
    },
    {
        "title": "Avusturya",
        "dial_code": "+43",
        "value": "AT"
    },
    {
        "title": "Azerbaycan",
        "dial_code": "+994",
        "value": "AZ"
    },
    {
        "title": "Bahamalar",
        "dial_code": "+1 242",
        "value": "BS"
    },
    {
        "title": "Bahreyn",
        "dial_code": "+973",
        "value": "BH"
    },
    {
        "title": "Bangladeş",
        "dial_code": "+880",
        "value": "BD"
    },
    {
        "title": "Barbados",
        "dial_code": "+1 246",
        "value": "BB"
    },
    {
        "title": "Belize",
        "dial_code": "+501",
        "value": "BZ"
    },
    {
        "title": "Belçika",
        "dial_code": "+32",
        "value": "BE"
    },
    {
        "title": "Benin",
        "dial_code": "+229",
        "value": "BJ"
    },
    {
        "title": "Bermuda",
        "dial_code": "+1 441",
        "value": "BM"
    },
    {
        "title": "Beyaz Rusya",
        "dial_code": "+375",
        "value": "BY"
    },
    {
        "title": "Bhutan",
        "dial_code": "+975",
        "value": "BT"
    },
    {
        "title": "Birleşik Arap Emirlikleri",
        "dial_code": "+971",
        "value": "AE"
    },
    {
        "title": "Birleşik Krallık",
        "dial_code": "+44",
        "value": "GB"
    },
    {
        "title": "Bolivya",
        "dial_code": "+591",
        "value": "BO"
    },
    {
        "title": "Bosna Hersek",
        "dial_code": "+387",
        "value": "BA"
    },
    {
        "title": "Botsvana",
        "dial_code": "+267",
        "value": "BW"
    },
    {
        "title": "Brezilya",
        "dial_code": "+55",
        "value": "BR"
    },
    {
        "title": "Brunei",
        "dial_code": "+673",
        "value": "BN"
    },
    {
        "title": "Bulgaristan",
        "dial_code": "+359",
        "value": "BG"
    },
    {
        "title": "Burkina Faso",
        "dial_code": "+226",
        "value": "BF"
    },
    {
        "title": "Burundi",
        "dial_code": "+257",
        "value": "BI"
    },
    {
        "title": "Cape Verde",
        "dial_code": "+238",
        "value": "CV"
    },
    {
        "title": "Cebelitarık",
        "dial_code": "+350",
        "value": "GI"
    },
    {
        "title": "Cezayir",
        "dial_code": "+213",
        "value": "DZ"
    },
    {
        "title": "Christmas Adası",
        "dial_code": "+61",
        "value": "CX"
    },
    {
        "title": "Cibuti",
        "dial_code": "+253",
        "value": "DJ"
    },
    {
        "title": "Cocos Adaları",
        "dial_code": "+61",
        "value": "CC"
    },
    {
        "title": "Cook Adaları",
        "dial_code": "+682",
        "value": "CK"
    },
    {
        "title": "Çad",
        "dial_code": "+235",
        "value": "TD"
    },
    {
        "title": "Çek Cumhuriyeti",
        "dial_code": "+420",
        "value": "CZ"
    },
    {
        "title": "Çin",
        "dial_code": "+86",
        "value": "CN"
    },
    {
        "title": "Danimarka",
        "dial_code": "+45",
        "value": "DK"
    },
    {
        "title": "Dominik",
        "dial_code": "+1 767",
        "value": "DM"
    },
    {
        "title": "Dominik Cumhuriyeti",
        "dial_code": "+1 849",
        "value": "DO"
    },
    {
        "title": "Doğu Timor",
        "dial_code": "+670",
        "value": "TL"
    },
    {
        "title": "Ekvator",
        "dial_code": "+593",
        "value": "EC"
    },
    {
        "title": "Ekvator Ginesi",
        "dial_code": "+240",
        "value": "GQ"
    },
    {
        "title": "El Salvador",
        "dial_code": "+503",
        "value": "SV"
    },
    {
        "title": "Endonezya",
        "dial_code": "+62",
        "value": "ID"
    },
    {
        "title": "Eritre",
        "dial_code": "+291",
        "value": "ER"
    },
    {
        "title": "Ermenistan",
        "dial_code": "+374",
        "value": "AM"
    },
    {
        "title": "Estonya",
        "dial_code": "+372",
        "value": "EE"
    },
    {
        "title": "Etiyopya",
        "dial_code": "+251",
        "value": "ET"
    },
    {
        "title": "Falkland Adaları (Malvinalar)",
        "dial_code": "+500",
        "value": "FK"
    },
    {
        "title": "Faroe Adaları",
        "dial_code": "+298",
        "value": "FO"
    },
    {
        "title": "Fas",
        "dial_code": "+212",
        "value": "MA"
    },
    {
        "title": "Fiji",
        "dial_code": "+679",
        "value": "FJ"
    },
    {
        "title": "Fildişi Sahilleri",
        "dial_code": "+225",
        "value": "CI"
    },
    {
        "title": "Filipinler",
        "dial_code": "+63",
        "value": "PH"
    },
    {
        "title": "Filistin Bölgesi",
        "dial_code": "+970",
        "value": "PS"
    },
    {
        "title": "Finlandiya",
        "dial_code": "+358",
        "value": "FI"
    },
    {
        "title": "Fransa",
        "dial_code": "+33",
        "value": "FR"
    },
    {
        "title": "Fransız Guyanası",
        "dial_code": "+594",
        "value": "GF"
    },
    {
        "title": "Fransız Polinezyası",
        "dial_code": "+689",
        "value": "PF"
    },
    {
        "title": "Gabon",
        "dial_code": "+241",
        "value": "GA"
    },
    {
        "title": "Gambia",
        "dial_code": "+220",
        "value": "GM"
    },
    {
        "title": "Gana",
        "dial_code": "+233",
        "value": "GH"
    },
    {
        "title": "Gine",
        "dial_code": "+224",
        "value": "GN"
    },
    {
        "title": "Gine-Bissau",
        "dial_code": "+245",
        "value": "GW"
    },
    {
        "title": "Granada",
        "dial_code": "+1 473",
        "value": "GD"
    },
    {
        "title": "Grönland",
        "dial_code": "+299",
        "value": "GL"
    },
    {
        "title": "Guadeloupe",
        "dial_code": "+590",
        "value": "GP"
    },
    {
        "title": "Guam",
        "dial_code": "+1 671",
        "value": "GU"
    },
    {
        "title": "Guatemala",
        "dial_code": "+502",
        "value": "GT"
    },
    {
        "title": "Guernsey",
        "dial_code": "+44",
        "value": "GG"
    },
    {
        "title": "Guyana",
        "dial_code": "+595",
        "value": "GY"
    },
    {
        "title": "Güney Afrika",
        "dial_code": "+27",
        "value": "ZA"
    },
    {
        "title": "Güney Georgia ve Güney Sandwich Adaları",
        "dial_code": "+500",
        "value": "GS"
    },
    {
        "title": "Güney Kore",
        "dial_code": "+82",
        "value": "KR"
    },
    {
        "title": "Güney Kıbrıs Rum Kesimi",
        "dial_code": "+537",
        "value": "CY"
    },
    {
        "title": "Gürcistan",
        "dial_code": "+995",
        "value": "GE"
    },
    {
        "title": "Haiti",
        "dial_code": "+509",
        "value": "HT"
    },
    {
        "title": "Hindistan",
        "dial_code": "+91",
        "value": "IN"
    },
    {
        "title": "Hint Okyanusu İngiliz Bölgesi",
        "dial_code": "+246",
        "value": "IO"
    },
    {
        "title": "Hollanda",
        "dial_code": "+31",
        "value": "NL"
    },
    {
        "title": "Hollanda Antilleri",
        "dial_code": "+599",
        "value": "AN"
    },
    {
        "title": "Honduras",
        "dial_code": "+504",
        "value": "HN"
    },
    {
        "title": "Hong Kong SAR - Çin",
        "dial_code": "+852",
        "value": "HK"
    },
    {
        "title": "Hırvatistan",
        "dial_code": "+385",
        "value": "HR"
    },
    {
        "title": "Irak",
        "dial_code": "+964",
        "value": "IQ"
    },
    {
        "title": "İngiliz Virgin Adaları",
        "dial_code": "+1 284",
        "value": "VG"
    },
    {
        "title": "İran",
        "dial_code": "+98",
        "value": "IR"
    },
    {
        "title": "İrlanda",
        "dial_code": "+353",
        "value": "IE"
    },
    {
        "title": "İspanya",
        "dial_code": "+34",
        "value": "ES"
    },
    {
        "title": "İsrail",
        "dial_code": "+972",
        "value": "IL"
    },
    {
        "title": "İsveç",
        "dial_code": "+46",
        "value": "SE"
    },
    {
        "title": "İsviçre",
        "dial_code": "+41",
        "value": "CH"
    },
    {
        "title": "İtalya",
        "dial_code": "+39",
        "value": "IT"
    },
    {
        "title": "İzlanda",
        "dial_code": "+354",
        "value": "IS"
    },
    {
        "title": "Jamaika",
        "dial_code": "+1 876",
        "value": "JM"
    },
    {
        "title": "Japonya",
        "dial_code": "+81",
        "value": "JP"
    },
    {
        "title": "Jersey",
        "dial_code": "+44",
        "value": "JE"
    },
    {
        "title": "Kamboçya",
        "dial_code": "+855",
        "value": "KH"
    },
    {
        "title": "Kamerun",
        "dial_code": "+237",
        "value": "CM"
    },
    {
        "title": "Kanada",
        "dial_code": "+1",
        "value": "CA"
    },
    {
        "title": "Karadağ",
        "dial_code": "+382",
        "value": "ME"
    },
    {
        "title": "Katar",
        "dial_code": "+974",
        "value": "QA"
    },
    {
        "title": "Kayman Adaları",
        "dial_code": "+ 345",
        "value": "KY"
    },
    {
        "title": "Kazakistan",
        "dial_code": "+7 7",
        "value": "KZ"
    },
    {
        "title": "Kenya",
        "dial_code": "+254",
        "value": "KE"
    },
    {
        "title": "Kiribati",
        "dial_code": "+686",
        "value": "KI"
    },
    {
        "title": "Kolombiya",
        "dial_code": "+57",
        "value": "CO"
    },
    {
        "title": "Komorlar",
        "dial_code": "+269",
        "value": "KM"
    },
    {
        "title": "Kongo",
        "dial_code": "+242",
        "value": "CG"
    },
    {
        "title": "Kongo Demokratik Cumhuriyeti",
        "dial_code": "+243",
        "value": "CD"
    },
    {
        "title": "Kosta Rika",
        "dial_code": "+506",
        "value": "CR"
    },
    {
        "title": "Kuveyt",
        "dial_code": "+965",
        "value": "KW"
    },
    {
        "title": "Kuzey Kore",
        "dial_code": "+850",
        "value": "KP"
    },
    {
        "title": "Kuzey Mariana Adaları",
        "dial_code": "+1 670",
        "value": "MP"
    },
    {
        "title": "Küba",
        "dial_code": "+53",
        "value": "CU"
    },
    {
        "title": "Kırgızistan",
        "dial_code": "+996",
        "value": "KG"
    },
    {
        "title": "Laos",
        "dial_code": "+856",
        "value": "LA"
    },
    {
        "title": "Lesotho",
        "dial_code": "+266",
        "value": "LS"
    },
    {
        "title": "Letonya",
        "dial_code": "+371",
        "value": "LV"
    },
    {
        "title": "Liberya",
        "dial_code": "+231",
        "value": "LR"
    },
    {
        "title": "Libya",
        "dial_code": "+218",
        "value": "LY"
    },
    {
        "title": "Liechtenstein",
        "dial_code": "+423",
        "value": "LI"
    },
    {
        "title": "Litvanya",
        "dial_code": "+370",
        "value": "LT"
    },
    {
        "title": "Lübnan",
        "dial_code": "+961",
        "value": "LB"
    },
    {
        "title": "Lüksemburg",
        "dial_code": "+352",
        "value": "LU"
    },
    {
        "title": "Macaristan",
        "dial_code": "+36",
        "value": "HU"
    },
    {
        "title": "Madagaskar",
        "dial_code": "+261",
        "value": "MG"
    },
    {
        "title": "Makao S.A.R. Çin",
        "dial_code": "+853",
        "value": "MO"
    },
    {
        "title": "Makedonya",
        "dial_code": "+389",
        "value": "MK"
    },
    {
        "title": "Malavi",
        "dial_code": "+265",
        "value": "MW"
    },
    {
        "title": "Maldivler",
        "dial_code": "+960",
        "value": "MV"
    },
    {
        "title": "Malezya",
        "dial_code": "+60",
        "value": "MY"
    },
    {
        "title": "Mali",
        "dial_code": "+223",
        "value": "ML"
    },
    {
        "title": "Malta",
        "dial_code": "+356",
        "value": "MT"
    },
    {
        "title": "Man Adası",
        "dial_code": "+44",
        "value": "IM"
    },
    {
        "title": "Marshall Adaları",
        "dial_code": "+692",
        "value": "MH"
    },
    {
        "title": "Martinik",
        "dial_code": "+596",
        "value": "MQ"
    },
    {
        "title": "Mauritius",
        "dial_code": "+230",
        "value": "MU"
    },
    {
        "title": "Mayotte",
        "dial_code": "+262",
        "value": "YT"
    },
    {
        "title": "Meksika",
        "dial_code": "+52",
        "value": "MX"
    },
    {
        "title": "Mikronezya Federal Eyaletleri",
        "dial_code": "+691",
        "value": "FM"
    },
    {
        "title": "Moldovya Cumhuriyeti",
        "dial_code": "+373",
        "value": "MD"
    },
    {
        "title": "Monako",
        "dial_code": "+377",
        "value": "MC"
    },
    {
        "title": "Montserrat",
        "dial_code": "+1664",
        "value": "MS"
    },
    {
        "title": "Moritanya",
        "dial_code": "+222",
        "value": "MR"
    },
    {
        "title": "Mozambik",
        "dial_code": "+258",
        "value": "MZ"
    },
    {
        "title": "Moğolistan",
        "dial_code": "+976",
        "value": "MN"
    },
    {
        "title": "Myanmar",
        "dial_code": "+95",
        "value": "MM"
    },
    {
        "title": "Mısır",
        "dial_code": "+20",
        "value": "EG"
    },
    {
        "title": "Namibya",
        "dial_code": "+264",
        "value": "NA"
    },
    {
        "title": "Nauru",
        "dial_code": "+674",
        "value": "NR"
    },
    {
        "title": "Nepal",
        "dial_code": "+977",
        "value": "NP"
    },
    {
        "title": "Nijer",
        "dial_code": "+227",
        "value": "NE"
    },
    {
        "title": "Nijerya",
        "dial_code": "+234",
        "value": "NG"
    },
    {
        "title": "Nikaragua",
        "dial_code": "+505",
        "value": "NI"
    },
    {
        "title": "Niue",
        "dial_code": "+683",
        "value": "NU"
    },
    {
        "title": "Norfolk Adası",
        "dial_code": "+672",
        "value": "NF"
    },
    {
        "title": "Norveç",
        "dial_code": "+47",
        "value": "NO"
    },
    {
        "title": "Orta Afrika Cumhuriyeti",
        "dial_code": "+236",
        "value": "CF"
    },
    {
        "title": "Özbekistan",
        "dial_code": "+998",
        "value": "UZ"
    },
    {
        "title": "Pakistan",
        "dial_code": "+92",
        "value": "PK"
    },
    {
        "title": "Palau",
        "dial_code": "+680",
        "value": "PW"
    },
    {
        "title": "Panama",
        "dial_code": "+507",
        "value": "PA"
    },
    {
        "title": "Papua Yeni Gine",
        "dial_code": "+675",
        "value": "PG"
    },
    {
        "title": "Paraguay",
        "dial_code": "+595",
        "value": "PY"
    },
    {
        "title": "Peru",
        "dial_code": "+51",
        "value": "PE"
    },
    {
        "title": "Pitcairn",
        "dial_code": "+872",
        "value": "PN"
    },
    {
        "title": "Polonya",
        "dial_code": "+48",
        "value": "PL"
    },
    {
        "title": "Portekiz",
        "dial_code": "+351",
        "value": "PT"
    },
    {
        "title": "Porto Riko",
        "dial_code": "+1 939",
        "value": "PR"
    },
    {
        "title": "Reunion",
        "dial_code": "+262",
        "value": "RE"
    },
    {
        "title": "Romanya",
        "dial_code": "+40",
        "value": "RO"
    },
    {
        "title": "Ruanda",
        "dial_code": "+250",
        "value": "RW"
    },
    {
        "title": "Rusya Federasyonu",
        "dial_code": "+7",
        "value": "RU"
    },
    {
        "title": "Samoa",
        "dial_code": "+685",
        "value": "WS"
    },
    {
        "title": "San Marino",
        "dial_code": "+378",
        "value": "SM"
    },
    {
        "title": "Sao Tome ve Principe",
        "dial_code": "+239",
        "value": "ST"
    },
    {
        "title": "Senegal",
        "dial_code": "+221",
        "value": "SN"
    },
    {
        "title": "Seyşeller",
        "dial_code": "+248",
        "value": "SC"
    },
    {
        "title": "Sierra Leone",
        "dial_code": "+232",
        "value": "SL"
    },
    {
        "title": "Singapur",
        "dial_code": "+65",
        "value": "SG"
    },
    {
        "title": "Slovakya",
        "dial_code": "+421",
        "value": "SK"
    },
    {
        "title": "Slovenya",
        "dial_code": "+386",
        "value": "SI"
    },
    {
        "title": "Solomon Adaları",
        "dial_code": "+677",
        "value": "SB"
    },
    {
        "title": "Somali",
        "dial_code": "+252",
        "value": "SO"
    },
    {
        "title": "Sri Lanka",
        "dial_code": "+94",
        "value": "LK"
    },
    {
        "title": "Sudan",
        "dial_code": "+249",
        "value": "SD"
    },
    {
        "title": "Surinam",
        "dial_code": "+597",
        "value": "SR"
    },
    {
        "title": "Suriye",
        "dial_code": "+963",
        "value": "SY"
    },
    {
        "title": "Suudi Arabistan",
        "dial_code": "+966",
        "value": "SA"
    },
    {
        "title": "Svalbard ve Jan Mayen",
        "dial_code": "+47",
        "value": "SJ"
    },
    {
        "title": "Svaziland",
        "dial_code": "+268",
        "value": "SZ"
    },
    {
        "title": "Sırbistan",
        "dial_code": "+381",
        "value": "RS"
    },
    {
        "title": "Şili",
        "dial_code": "+56",
        "value": "CL"
    },
    {
        "title": "Tacikistan",
        "dial_code": "+992",
        "value": "TJ"
    },
    {
        "title": "Tanzanya",
        "dial_code": "+255",
        "value": "TZ"
    },
    {
        "title": "Tayland",
        "dial_code": "+66",
        "value": "TH"
    },
    {
        "title": "Tayvan",
        "dial_code": "+886",
        "value": "TW"
    },
    {
        "title": "Togo",
        "dial_code": "+228",
        "value": "TG"
    },
    {
        "title": "Tokelau",
        "dial_code": "+690",
        "value": "TK"
    },
    {
        "title": "Tonga",
        "dial_code": "+676",
        "value": "TO"
    },
    {
        "title": "Trinidad ve Tobago",
        "dial_code": "+1 868",
        "value": "TT"
    },
    {
        "title": "Tunus",
        "dial_code": "+216",
        "value": "TN"
    },
    {
        "title": "Turks ve Caicos Adaları",
        "dial_code": "+1 649",
        "value": "TC"
    },
    {
        "title": "Tuvalu",
        "dial_code": "+688",
        "value": "TV"
    },
    {
        "title": "Türkiye",
        "dial_code": "+90",
        "value": "TR"
    },
    {
        "title": "Türkmenistan",
        "dial_code": "+993",
        "value": "TM"
    },
    {
        "title": "Uganda",
        "dial_code": "+256",
        "value": "UG"
    },
    {
        "title": "Ukrayna",
        "dial_code": "+380",
        "value": "UA"
    },
    {
        "title": "Umman",
        "dial_code": "+968",
        "value": "OM"
    },
    {
        "title": "Uruguay",
        "dial_code": "+598",
        "value": "UY"
    },
    {
        "title": "Ürdün",
        "dial_code": "+962",
        "value": "JO"
    },
    {
        "title": "Vanuatu",
        "dial_code": "+678",
        "value": "VU"
    },
    {
        "title": "Vatikan",
        "dial_code": "+379",
        "value": "VA"
    },
    {
        "title": "Venezuela",
        "dial_code": "+58",
        "value": "VE"
    },
    {
        "title": "Vietnam",
        "dial_code": "+84",
        "value": "VN"
    },
    {
        "title": "Wallis ve Futuna",
        "dial_code": "+681",
        "value": "WF"
    },
    {
        "title": "Yemen",
        "dial_code": "+967",
        "value": "YE"
    },
    {
        "title": "Yeni Kaledonya",
        "dial_code": "+687",
        "value": "NC"
    },
    {
        "title": "Yeni Zelanda",
        "dial_code": "+64",
        "value": "NZ"
    },
    {
        "title": "Yunanistan",
        "dial_code": "+30",
        "value": "GR"
    },
    {
        "title": "Zambiya",
        "dial_code": "+260",
        "value": "ZM"
    },
    {
        "title": "Zimbabve",
        "dial_code": "+263",
        "value": "ZW"
    }
]